IRIDIUM 126             
1 42809U 17039G   23329.66910447  .00000596  00000+0  20568-3 0  9992
2 42809  86.3997  24.1862 0001997 101.0995 259.0425 14.34220525336008
IRIDIUM 124             
1 42810U 17039H   23329.95797157  .00000564  00000+0  16172-3 0  9998
2 42810  86.4466 320.8292 0002526  87.8048 272.3442 14.43277499340367
IRIDIUM 128             
1 42811U 17039J   23329.79937980  .00000363  00000+0  12238-3 0  9997
2 42811  86.3990  55.6489 0002208 100.2105 259.9340 14.34219863336051
IRIDIUM 121             
1 42812U 17039K   23329.68813322  .00000606  00000+0  20947-3 0  9995
2 42812  86.3999  24.2000 0001991  94.5800 265.5623 14.34221854335887
IRIDIUM 133             
1 42955U 17061A   23329.76133286  .00000769  00000+0  26763-3 0  9993
2 42955  86.3990  55.7593 0001948 101.4707 258.6708 14.34222595320848
IRIDIUM 100             
1 42956U 17061B   23329.75497943  .00000717  00000+0  24906-3 0  9996
2 42956  86.3989  55.7026 0002145  97.8424 262.3016 14.34223984320849
IRIDIUM 122             
1 42957U 17061C   23329.72326550  .00000681  00000+0  23610-3 0  9990
2 42957  86.3988  55.7135 0002263  99.5122 260.6329 14.34223320320847
IRIDIUM 129             
1 42958U 17061D   23329.74864483  .00000669  00000+0  23164-3 0  9995
2 42958  86.3990  55.7601 0002152  99.8165 260.3274 14.34221922320860
